HULIANWANG DIGUI 12H    
1 66002U 25231H   25309.23925723  .00000045  00000+0  12394-3 0  9999
2 66002  50.0062 275.5316 0007759 342.7327  17.3312 14.03811630  2842
HULIANWANG DIGUI 12J    
1 66003U 25231J   25309.23472373  .00000048  00000+0  12581-3 0  9999
2 66003  50.0037 275.5013 0005550 341.3408  18.7292 14.03906938  2849
CZ-8A R/B               
1 66004U 25231K   25309.23548884 -.00000035  00000+0  46525-4 0  9994
2 66004  50.0034 272.0516 0116672 155.0792 205.5819 14.30033657  2896
STARLINK-34849          
1 66005U 25232A   25309.25001157 -.01010652  00000+0 -19683-1 0  9995
2 66005  53.1729 324.4143 0001932  63.1380 101.9517 15.49648883  3512
STARLINK-35336          
1 66006U 25232B   25309.25001157  .00038986  00000+0  70671-3 0  9999
2 66006  53.1585 324.4095 0001466  81.7162  85.4650 15.49260716  3525
STARLINK-35196          
1 66007U 25232C   25309.25001157 -.00112804  00000+0 -20469-2 0  9993
2 66007  53.1586 324.4061 0001488  82.4703  86.6007 15.49344044  3529
STARLINK-35236          
1 66008U 25232D   25309.25001157  .00040723  00000+0  73742-3 0  9995
2 66008  53.1587 324.4018 0001847  57.6093 113.2956 15.49270364  3521
STARLINK-35276          
1 66009U 25232E   25309.25001157  .00041400  00000+0  74936-3 0  9995
2 66009  53.1587 324.3979 0001762  63.2389 109.5908 15.49275283  3513
STARLINK-35297          
1 66010U 25232F   25309.25001157  .00041530  00000+0  75175-3 0  9997
2 66010  53.1587 324.3943 0001829  62.5268 112.2152 15.49271940  3527
STARLINK-35256          
1 66011U 25232G   25309.25001157 -.00095610  00000+0 -17301-2 0  9994
2 66011  53.1585 324.3772 0001484  80.3113 102.1764 15.49340044  3529
STARLINK-35293          
1 66012U 25232H   25309.25001157 -.00098630  00000+0 -17857-2 0  9996
2 66012  53.1588 324.3891 0001462  73.9252 102.8134 15.49340639  3521
STARLINK-35307          
1 66013U 25232J   25309.25001157  .00012221  00000+0  22757-3 0  9993
2 66013  53.1586 324.3861 0002040  59.5906 118.9767 15.49292176  3450
